[{"OBJECT_NAME":"UWE-3","OBJECT_ID":"2013-066AG","EPOCH":"2026-03-27T20:27:39.332448","MEAN_MOTION":14.96361547,"ECCENTRICITY":0.00483055,"INCLINATION":97.8618,"RA_OF_ASC_NODE":42.4606,"ARG_OF_PERICENTER":229.9974,"MEAN_ANOMALY":129.7003,"EPHEMERIS_TYPE":0,"CLASSIFICATION_TYPE":"U","NORAD_CAT_ID":39446,"ELEMENT_SET_NO":999,"REV_AT_EPOCH":66541,"BSTAR":0.00031439146,"MEAN_MOTION_DOT":3.58e-5,"MEAN_MOTION_DDOT":0},{"OBJECT_NAME":"UNISAT-6","OBJECT_ID":"2014-033C","EPOCH":"2026-03-28T08:54:48.031200","MEAN_MOTION":14.87758209,"ECCENTRICITY":0.00446772,"INCLINATION":97.7761,"RA_OF_ASC_NODE":241.5798,"ARG_OF_PERICENTER":336.3258,"MEAN_ANOMALY":23.5902,"EPHEMERIS_TYPE":0,"CLASSIFICATION_TYPE":"U","NORAD_CAT_ID":40012,"ELEMENT_SET_NO":999,"REV_AT_EPOCH":63414,"BSTAR":0.0003859588,"MEAN_MOTION_DOT":3.53e-5,"MEAN_MOTION_DDOT":0},{"OBJECT_NAME":"DUCHIFAT-1","OBJECT_ID":"2014-033M","EPOCH":"2026-03-28T14:28:37.526304","MEAN_MOTION":15.52193066,"ECCENTRICITY":0.00039129,"INCLINATION":98.0603,"RA_OF_ASC_NODE":136.2924,"ARG_OF_PERICENTER":23.3897,"MEAN_ANOMALY":336.7531,"EPHEMERIS_TYPE":0,"CLASSIFICATION_TYPE":"U","NORAD_CAT_ID":40021,"ELEMENT_SET_NO":999,"REV_AT_EPOCH":64320,"BSTAR":0.0012559262,"MEAN_MOTION_DOT":0.00076623,"MEAN_MOTION_DDOT":0},{"OBJECT_NAME":"QB50P1","OBJECT_ID":"2014-033R","EPOCH":"2026-03-28T13:52:54.228288","MEAN_MOTION":15.1689946,"ECCENTRICITY":0.00102531,"INCLINATION":98.1003,"RA_OF_ASC_NODE":93.1439,"ARG_OF_PERICENTER":134.0107,"MEAN_ANOMALY":226.1971,"EPHEMERIS_TYPE":0,"CLASSIFICATION_TYPE":"U","NORAD_CAT_ID":40025,"ELEMENT_SET_NO":999,"REV_AT_EPOCH":64080,"BSTAR":0.00055839979,"MEAN_MOTION_DOT":0.00010949,"MEAN_MOTION_DDOT":0},{"OBJECT_NAME":"LILACSAT-2","OBJECT_ID":"2015-049K","EPOCH":"2026-03-28T13:54:37.822752","MEAN_MOTION":15.4871832,"ECCENTRICITY":0.00077443,"INCLINATION":97.478,"RA_OF_ASC_NODE":121.4663,"ARG_OF_PERICENTER":170.573,"MEAN_ANOMALY":189.5667,"EPHEMERIS_TYPE":0,"CLASSIFICATION_TYPE":"U","NORAD_CAT_ID":40908,"ELEMENT_SET_NO":999,"REV_AT_EPOCH":58326,"BSTAR":0.00038234193,"MEAN_MOTION_DOT":0.00020438,"MEAN_MOTION_DDOT":0},{"OBJECT_NAME":"FOX-1A (AO-85)","OBJECT_ID":"2015-058D","EPOCH":"2026-03-28T13:57:18.937152","MEAN_MOTION":14.90487488,"ECCENTRICITY":0.01284338,"INCLINATION":64.7757,"RA_OF_ASC_NODE":169.3847,"ARG_OF_PERICENTER":88.3269,"MEAN_ANOMALY":273.2549,"EPHEMERIS_TYPE":0,"CLASSIFICATION_TYPE":"U","NORAD_CAT_ID":40967,"ELEMENT_SET_NO":999,"REV_AT_EPOCH":10155,"BSTAR":0.00024564544,"MEAN_MOTION_DOT":2.636e-5,"MEAN_MOTION_DDOT":0},{"OBJECT_NAME":"CAS-2T & KS-1Q","OBJECT_ID":"2016-066G","EPOCH":"2026-03-28T11:28:47.142624","MEAN_MOTION":14.44518747,"ECCENTRICITY":0.03426501,"INCLINATION":98.3859,"RA_OF_ASC_NODE":164.1202,"ARG_OF_PERICENTER":14.6323,"MEAN_ANOMALY":346.4492,"EPHEMERIS_TYPE":0,"CLASSIFICATION_TYPE":"U","NORAD_CAT_ID":41847,"ELEMENT_SET_NO":999,"REV_AT_EPOCH":49314,"BSTAR":0.0001560288,"MEAN_MOTION_DOT":1.05e-5,"MEAN_MOTION_DDOT":0},{"OBJECT_NAME":"RADFXSAT (FOX-1B)","OBJECT_ID":"2017-073E","EPOCH":"2026-03-28T14:24:27.173664","MEAN_MOTION":15.112505,"ECCENTRICITY":0.0153091,"INCLINATION":97.483,"RA_OF_ASC_NODE":316.5,"ARG_OF_PERICENTER":246.3881,"MEAN_ANOMALY":112.1212,"EPHEMERIS_TYPE":0,"CLASSIFICATION_TYPE":"U","NORAD_CAT_ID":43017,"ELEMENT_SET_NO":999,"REV_AT_EPOCH":45321,"BSTAR":0.00044040108,"MEAN_MOTION_DOT":9.762e-5,"MEAN_MOTION_DDOT":0},{"OBJECT_NAME":"DIWATA-2B","OBJECT_ID":"2018-084H","EPOCH":"2026-03-28T14:24:39.070080","MEAN_MOTION":15.00052261,"ECCENTRICITY":0.00135023,"INCLINATION":98.1042,"RA_OF_ASC_NODE":280.4138,"ARG_OF_PERICENTER":70.9832,"MEAN_ANOMALY":289.2851,"EPHEMERIS_TYPE":0,"CLASSIFICATION_TYPE":"U","NORAD_CAT_ID":43678,"ELEMENT_SET_NO":999,"REV_AT_EPOCH":40413,"BSTAR":0.00010147116,"MEAN_MOTION_DOT":1.2e-5,"MEAN_MOTION_DDOT":0},{"OBJECT_NAME":"ES'HAIL 2","OBJECT_ID":"2018-090A","EPOCH":"2026-03-28T13:11:44.453184","MEAN_MOTION":1.00274074,"ECCENTRICITY":0.00011227,"INCLINATION":0.0144,"RA_OF_ASC_NODE":121.4549,"ARG_OF_PERICENTER":246.3713,"MEAN_ANOMALY":41.8692,"EPHEMERIS_TYPE":0,"CLASSIFICATION_TYPE":"U","NORAD_CAT_ID":43700,"ELEMENT_SET_NO":999,"REV_AT_EPOCH":2686,"BSTAR":0,"MEAN_MOTION_DOT":1.25e-6,"MEAN_MOTION_DDOT":0},{"OBJECT_NAME":"FOX-1CLIFF (AO-95)","OBJECT_ID":"2018-099N","EPOCH":"2026-03-28T09:55:32.497248","MEAN_MOTION":15.24890588,"ECCENTRICITY":0.00074602,"INCLINATION":97.4477,"RA_OF_ASC_NODE":148.0337,"ARG_OF_PERICENTER":270.0995,"MEAN_ANOMALY":89.9387,"EPHEMERIS_TYPE":0,"CLASSIFICATION_TYPE":"U","NORAD_CAT_ID":43770,"ELEMENT_SET_NO":999,"REV_AT_EPOCH":40090,"BSTAR":0.00054335474,"MEAN_MOTION_DOT":0.00013464,"MEAN_MOTION_DDOT":0},{"OBJECT_NAME":"ITASAT","OBJECT_ID":"2018-099AE","EPOCH":"2026-03-28T08:46:28.160544","MEAN_MOTION":15.17966627,"ECCENTRICITY":0.00112028,"INCLINATION":97.4132,"RA_OF_ASC_NODE":140.5152,"ARG_OF_PERICENTER":274.0228,"MEAN_ANOMALY":85.9726,"EPHEMERIS_TYPE":0,"CLASSIFICATION_TYPE":"U","NORAD_CAT_ID":43786,"ELEMENT_SET_NO":999,"REV_AT_EPOCH":40064,"BSTAR":0.00043331867,"MEAN_MOTION_DOT":8.752e-5,"MEAN_MOTION_DDOT":0},{"OBJECT_NAME":"JY1SAT (JO-97)","OBJECT_ID":"2018-099AX","EPOCH":"2026-03-28T10:46:03.326304","MEAN_MOTION":15.30991242,"ECCENTRICITY":0.00061842,"INCLINATION":97.4223,"RA_OF_ASC_NODE":150.1301,"ARG_OF_PERICENTER":183.1019,"MEAN_ANOMALY":177.0185,"EPHEMERIS_TYPE":0,"CLASSIFICATION_TYPE":"U","NORAD_CAT_ID":43803,"ELEMENT_SET_NO":999,"REV_AT_EPOCH":40126,"BSTAR":0.00069471199,"MEAN_MOTION_DOT":0.00020769,"MEAN_MOTION_DDOT":0},{"OBJECT_NAME":"UWE-4","OBJECT_ID":"2018-111E","EPOCH":"2026-03-28T13:49:16.547808","MEAN_MOTION":15.41225263,"ECCENTRICITY":0.00059126,"INCLINATION":97.585,"RA_OF_ASC_NODE":12.5662,"ARG_OF_PERICENTER":248.1805,"MEAN_ANOMALY":111.8812,"EPHEMERIS_TYPE":0,"CLASSIFICATION_TYPE":"U","NORAD_CAT_ID":43880,"ELEMENT_SET_NO":999,"REV_AT_EPOCH":39834,"BSTAR":0.00092420241,"MEAN_MOTION_DOT":0.00038469,"MEAN_MOTION_DDOT":0},{"OBJECT_NAME":"TIANYAN 01","OBJECT_ID":"2019-093C","EPOCH":"2026-03-28T14:27:36.196128","MEAN_MOTION":14.86379041,"ECCENTRICITY":0.00135813,"INCLINATION":97.7578,"RA_OF_ASC_NODE":161.7902,"ARG_OF_PERICENTER":358.5479,"MEAN_ANOMALY":1.5695,"EPHEMERIS_TYPE":0,"CLASSIFICATION_TYPE":"U","NORAD_CAT_ID":44881,"ELEMENT_SET_NO":999,"REV_AT_EPOCH":33944,"BSTAR":8.0466594e-5,"MEAN_MOTION_DOT":6.57e-6,"MEAN_MOTION_DDOT":0},{"OBJECT_NAME":"RS-44 & BREEZE-KM R/B","OBJECT_ID":"2019-096E","EPOCH":"2026-03-28T13:22:35.657760","MEAN_MOTION":12.79747726,"ECCENTRICITY":0.02170899,"INCLINATION":82.5244,"RA_OF_ASC_NODE":33.2767,"ARG_OF_PERICENTER":333.2099,"MEAN_ANOMALY":25.7918,"EPHEMERIS_TYPE":0,"CLASSIFICATION_TYPE":"U","NORAD_CAT_ID":44909,"ELEMENT_SET_NO":999,"REV_AT_EPOCH":29203,"BSTAR":-3.708673e-6,"MEAN_MOTION_DOT":9.0e-8,"MEAN_MOTION_DDOT":0}]
