UWE-3                   
1 39446U 13066AG  26086.85253857  .00003580  00000+0  31439-3 0  9995
2 39446  97.8618  42.4606 0048305 229.9974 129.7003 14.96361547665411
UNISAT-6                
1 40012U 14033C   26087.37138925  .00003530  00000+0  38596-3 0  9993
2 40012  97.7761 241.5798 0044677 336.3258  23.5902 14.87758209634140
DUCHIFAT-1              
1 40021U 14033M   26087.60321211  .00076623  00000+0  12559-2 0  9994
2 40021  98.0603 136.2924 0003912  23.3897 336.7531 15.52193066643200
QB50P1                  
1 40025U 14033R   26087.57840542  .00010949  00000+0  55840-3 0  9997
2 40025  98.1003  93.1439 0010253 134.0107 226.1971 15.16899460640805
LILACSAT-2              
1 40908U 15049K   26087.57960443  .00020438  00000+0  38234-3 0  9990
2 40908  97.4780 121.4663 0007744 170.5730 189.5667 15.48718320583261
FOX-1A (AO-85)          
1 40967U 15058D   26087.58146918  .00002636  00000+0  24565-3 0  9991
2 40967  64.7757 169.3847 0128433  88.3269 273.2549 14.90487488101556
CAS-2T & KS-1Q          
1 41847U 16066G   26087.47832341  .00001050  00000+0  15603-3 0  9991
2 41847  98.3859 164.1202 0342650  14.6323 346.4492 14.44518747493141
RADFXSAT (FOX-1B)       
1 43017U 17073E   26087.60031451  .00009762  00000+0  44040-3 0  9994
2 43017  97.4830 316.5000 0153091 246.3881 112.1212 15.11250500453219
DIWATA-2B               
1 43678U 18084H   26087.60045220  .00001200  00000+0  10147-3 0  9999
2 43678  98.1042 280.4138 0013502  70.9832 289.2851 15.00052261404139
ES'HAIL 2               
1 43700U 18090A   26087.54982006  .00000125  00000+0  00000+0 0  9995
2 43700   0.0144 121.4549 0001122 246.3713  41.8692  1.00274074 26860
FOX-1CLIFF (AO-95)      
1 43770U 18099N   26087.41357057  .00013464  00000+0  54335-3 0  9993
2 43770  97.4477 148.0337 0007460 270.0995  89.9387 15.24890588400903
ITASAT                  
1 43786U 18099AE  26087.36560371  .00008752  00000+0  43332-3 0  9998
2 43786  97.4132 140.5152 0011202 274.0228  85.9726 15.17966627400646
JY1SAT (JO-97)          
1 43803U 18099AX  26087.44864961  .00020769  00000+0  69471-3 0  9993
2 43803  97.4223 150.1301 0006184 183.1019 177.0185 15.30991242401268
UWE-4                   
1 43880U 18111E   26087.57588597  .00038469  00000+0  92420-3 0  9991
2 43880  97.5850  12.5662 0005912 248.1805 111.8812 15.41225263398346
TIANYAN 01              
1 44881U 19093C   26087.60250227  .00000657  00000+0  80467-4 0  9990
2 44881  97.7578 161.7902 0013581 358.5479   1.5695 14.86379041339447
RS-44 & BREEZE-KM R/B   
1 44909U 19096E   26087.55735715  .00000009  00000+0 -37087-5 0  9991
2 44909  82.5244  33.2767 0217089 333.2099  25.7918 12.79747726292037
